#aV2007  9  8  0  0   .00000000      96 DD+AD WGS84 FIT  NGA
## 1443 518400.00000000   900.00000000 54351  .0000000000000
+   31     1  2  3  4  5  6  7  8  9 10 11 12 13 14 16 17 18
+         19 20 21 22 23 24 25 26 27 28 29 30 31 32  0  0  0
+          0  0  0  0  0  0  0  0  0  0  0  0  0  0  0  0  0
+          0  0  0  0  0  0  0  0  0  0  0  0  0  0  0  0  0
+          0  0  0  0  0  0  0  0  0  0  0  0  0  0  0  0  0
++         0  0  0  0  0  0  0  0  0  0  0  0  0  0  0  0  0
++         0  0  0  0  0  0  0  0  0  0  0  0  0  0  0  0  0
++         0  0  0  0  0  0  0  0  0  0  0  0  0  0  0  0  0
++         0  0  0  0  0  0  0  0  0  0  0  0  0  0  0  0  0
++         0  0  0  0  0  0  0  0  0  0  0  0  0  0  0  0  0
%c cc cc ccc ccc cccc cccc cccc cccc ccccc ccccc ccccc ccccc
%c cc cc ccc ccc cccc cccc cccc cccc ccccc ccccc ccccc ccccc
%f  0.0000000  0.000000000  0.00000000000  0.000000000000000
%f  0.0000000  0.000000000  0.00000000000  0.000000000000000
%i    0    0    0    0      0      0      0      0         0
%i    0    0    0    0      0      0      0      0         0
/*      NGA, ST. LOUIS,MO.                                  
/*   EPHEMERIS COMPUTED FROM  3 DAYS OF DATA                
/* CCCCCCCCCCCCCCCCCCCCCCCCCCCCCCCCCCCCCCCCCCCCCCCCCCCCCCCCC
/* CCCCCCCCCCCCCCCCCCCCCCCCCCCCCCCCCCCCCCCCCCCCCCCCCCCCCCCCC
*  2007  9  8 15 30   .00000000                                                 
P  1  13395.761141 -18859.501912  13185.586979    151.289980                    
V  1  14590.105657  -7592.111729 -26173.903723       .024842                    
P  2    733.025704  16604.800989  20581.239791    135.008243                    
V  2 -24600.837682 -10067.466978   8613.147697       .027484                    
P  3   3337.900089 -20079.215737 -17107.164834    112.898695                    
V  3  17797.615257 -12391.317080  18600.710296       .053422                    
P  4 -12824.926407  10549.732937  20724.197936     -3.940906                    
V  4 -23654.883106 -11885.425961  -8203.319830      -.027957                    
P  5  15145.938100  13443.084614  17007.229016    370.056548                    
V  5   2043.809617  22093.882734 -18852.415148       .346414                    
P  6  21742.930684  -2606.404363  15239.009670    246.439351                    
V  6 -13538.594830  13683.929977  21894.890119      -.010519                    
P  7  22207.128475  -4654.692299  14182.727340   -119.653825                    
V  7 -11889.875426  13081.073776  23438.696205       .275447                    
P  8 -19952.520198   3068.175348 -17607.645223   -121.983206                    
V  8 -19025.817853 -10932.947987  19334.612634      -.014649                    
P  9  19827.631328  15320.205651  -9707.756262     86.796743                    
V  9 -11323.325259  -2388.666987 -28536.362078       .017256                    
P 10    690.370215  26307.969388   1786.205397     24.699784                    
V 10  -3046.457962  -2211.295866  32008.258381     -1.376685                    
P 11 -22301.490883 -12387.640105  -8039.726748     23.366171                    
V 11  10842.803970  -1639.081585 -27645.408678       .004384                    
P 12  11659.236639  19502.250867  13904.300536    -55.450909                    
V 12   -335.665953  17586.061959 -24485.208733      -.012986                    
P 13 -21713.345647   2717.782070  14929.682559    204.816263                    
V 13  15208.429766 -11618.839843  24085.211072       .029519                    
P 14  21231.673574 -15793.836039   1632.125863     40.208289                    
V 14   2744.936720    536.876621 -32345.433765       .022304                    
P 16   3093.158099 -25240.588095   7447.307112    174.400684                    
V 16   3432.364686   9143.954749  30018.606762       .022621                    
P 17 -21776.846408  15070.268293   -324.742372     55.251983                    
V 17  -1351.497758  -2675.018153 -31824.530661      -.011536                    
P 18  15343.583257   -311.278537 -21522.632502   -237.102138                    
V 18   1706.949419  27683.074374    461.856111       .016963                    
P 19  -6095.282226 -14078.156112 -21576.159953     63.843998                    
V 19  23651.347558 -14322.186537   2790.375070       .025138                    
P 20 -13347.987038 -16347.201971  16044.593200    -29.301706                    
V 20   -201.591993 -20680.565461 -21071.419395      -.005715                    
P 21  24682.533547   4332.391888  -9494.169784     78.378919                    
V 21   9672.870025   7794.446386  27684.139495      -.001875                    
P 22  12129.482347 -15103.477820 -17992.193615    197.077802                    
V 22   2996.523514  23098.427492 -17260.893883       .013110                    
P 23 -15694.414128  -6036.273553  20538.088565    199.190299                    
V 23  20837.372854 -15839.806957  11002.643233       .038902                    
P 24  23094.389033  12766.216964   1046.120391     29.006398                    
V 24  -2475.656680   2389.747827  31770.408935       .029466                    
P 25 -25416.940163  -6812.999748  -2572.714777    433.060775                    
V 25  -2558.100780  -4015.328571  31626.639127       .106878                    
P 26   2577.932534  15373.797995 -21859.509514     20.465667                    
V 26 -22630.568650  14211.031236   8018.093950       .135707                    
P 27 -24654.049668  -2598.737099  -9167.859329    133.825591                    
V 27 -10815.964147  -6715.904980  28741.044299       .023607                    
P 28 -12948.348171  11412.105236 -19745.892334     -6.525664                    
V 28  -3263.231969 -25758.958910 -12870.150152      -.006400                    
P 29  -2168.527404  17390.046969 -19628.069587      5.534664                    
V 29 -21335.945926  13858.297052  14866.162845       .002312                    
P 30  15526.603648   7149.723572  20030.962917     45.064037                    
V 30   2416.316458  26093.015510 -10902.457123       .011617                    
P 31   9128.326205 -12496.597168  21787.810975     10.197883                    
V 31  24695.967271  11364.181406  -3792.028090      -.013017                    
P 32   5891.524525 -24098.366105  -9195.149664     49.930186                    
V 32   2409.156920  12255.248246 -28968.610044       .171346                    
EOF
